[{"OBJECT_NAME":"OBJECT L","OBJECT_ID":"2023-085L","EPOCH":"2026-03-09T23:02:21.999840","MEAN_MOTION":15.29079976,"ECCENTRICITY":0.0005428,"INCLINATION":97.486,"RA_OF_ASC_NODE":178.8598,"ARG_OF_PERICENTER":50.8528,"MEAN_ANOMALY":309.3193,"EPHEMERIS_TYPE":0,"CLASSIFICATION_TYPE":"U","NORAD_CAT_ID":57014,"ELEMENT_SET_NO":999,"REV_AT_EPOCH":15144,"BSTAR":0.00063462603,"MEAN_MOTION_DOT":0.00017871,"MEAN_MOTION_DDOT":0},{"OBJECT_NAME":"STARLINK-33834","OBJECT_ID":"2025-076T","EPOCH":"2026-03-09T16:00:03.000096","MEAN_MOTION":15.27553655,"ECCENTRICITY":0.00015743,"INCLINATION":43.0006,"RA_OF_ASC_NODE":321.854,"ARG_OF_PERICENTER":266.3401,"MEAN_ANOMALY":198.1749,"EPHEMERIS_TYPE":0,"CLASSIFICATION_TYPE":"U","NORAD_CAT_ID":63586,"ELEMENT_SET_NO":999,"REV_AT_EPOCH":587,"BSTAR":0.0014881479,"MEAN_MOTION_DOT":0.00040883,"MEAN_MOTION_DDOT":0}]
